OBJECT_NAME,OBJECT_ID,EPOCH,MEAN_MOTION,ECCENTRICITY,INCLINATION,RA_OF_ASC_NODE,ARG_OF_PERICENTER,MEAN_ANOMALY,EPHEMERIS_TYPE,CLASSIFICATION_TYPE,NORAD_CAT_ID,ELEMENT_SET_NO,REV_AT_EPOCH,BSTAR,MEAN_MOTION_DOT,MEAN_MOTION_DDOT
TRANSPORTER-15 OBJECT CX,2025-276CX,2026-06-22T11:23:40.499520,15.21000661,.00002891,97.4166,247.1464,116.7467,243.3798,0,U,66759,999,3124,.22391106E-3,.4896E-4,0
TRANSPORTER-15 OBJECT CY,2025-276CY,2026-06-22T04:35:44.176128,15.20307760,.00009821,97.4184,246.8117,105.7923,254.3421,0,U,66760,999,3119,.15631886E-3,.3328E-4,0
TRANSPORTER-15 OBJECT CZ,2025-276CZ,2026-06-21T18:37:07.074912,15.22368484,.00008966,97.4181,246.7474,131.4836,228.6478,0,U,66761,999,3115,.27606474E-3,.6303E-4,0
HYDROGNSS-1,2025-276DA,2026-06-22T02:24:02.480544,15.11487776,.0011825,97.4197,245.4570,40.9590,319.2527,0,U,66762,999,3109,.12107466E-3,.1989E-4,0
HYDROGNSS-2,2025-276DB,2026-06-22T04:47:06.543456,15.11471590,.00105302,97.4198,245.4874,345.7622,14.3310,0,U,66763,999,3110,.12593274E-3,.207E-4,0
NAHLA,2025-276DC,2026-06-22T10:45:58.721184,15.18912977,.00018751,97.4202,246.8025,349.5815,10.5380,0,U,66764,999,3121,.95813765E-4,.1932E-4,0
TRANSPORTER-15 OBJECT DD,2025-276DD,2026-06-22T10:48:50.063616,15.23896018,.0001346,97.4210,247.7431,135.0699,225.0648,0,U,66765,999,3127,.43623998E-3,.10469E-3,0
T.MICROSAT-1,2025-276DE,2026-06-22T16:03:01.038528,15.20861548,.00019673,97.4157,247.3108,118.0647,242.0788,0,U,66766,999,3127,.19883763E-3,.4322E-4,0
ACCENTURE-1,2025-276DF,2026-06-22T19:04:20.860032,15.20010689,.00019633,97.4157,247.3064,115.9788,244.1649,0,U,66767,999,3128,.12904706E-3,.2712E-4,0
LEMUR-2-TEODOR,2025-276DG,2026-06-22T10:39:28.164672,15.21096278,.0002299,97.4149,247.1302,111.6754,248.4726,0,U,66768,999,3124,.18717455E-3,.4093E-4,0
SPEQTRE,2025-276DH,2026-06-22T10:11:20.595552,15.20530028,.00016072,97.4204,247.1606,144.0704,216.0640,0,U,66769,999,3123,.1665853E-3,.3575E-4,0
LILIUM-3,2025-276DJ,2026-06-22T02:20:41.816544,15.19525270,.00011893,97.4245,246.7752,180.5763,179.5471,0,U,66770,999,3117,.82802734E-4,.1691E-4,0
GYEONGGISAT-1,2025-276DK,2026-06-22T11:24:19.522944,15.20781965,.00016021,97.4229,247.3173,160.9487,199.1809,0,U,66771,999,3124,.20242371E-3,.4391E-4,0
IHI-SAT2,2025-276DL,2026-06-22T16:09:19.251072,15.21490933,.00020637,97.4230,247.6505,146.8751,213.2615,0,U,66772,999,3128,.22944352E-3,.5092E-4,0
TRANSPORTER-15 OBJECT DM,2025-276DM,2026-06-22T16:16:50.804256,15.20564303,.00020735,97.4216,247.4678,147.7012,212.4351,0,U,66773,999,3127,.17092104E-3,.3673E-4,0
GENA-OT,2025-276DN,2026-06-22T12:07:41.767392,15.21163128,.00020522,97.4202,247.3533,144.7011,215.4361,0,U,66774,999,3125,.19024495E-3,.4169E-4,0
PHI 1,2025-276DP,2026-06-22T11:46:21.719424,15.21360523,.00030161,97.4128,247.1735,117.7225,242.4317,0,U,66775,999,3125,.23042248E-3,.5095E-4,0
LEMUR-2-LAILA,2025-276DQ,2026-06-22T03:41:56.749056,15.21315842,.00025148,97.4170,246.9685,128.7880,231.3581,0,U,66776,999,3120,.20469819E-3,.4512E-4,0
LUNA-1,2025-276DR,2026-06-22T10:41:33.004032,15.22832157,.00023384,97.4252,247.7220,164.9090,195.2216,0,U,66777,999,3126,.31036957E-3,.7194E-4,0
FORESAIL-1 PRIME,2025-276DS,2026-06-22T19:04:14.218464,15.18744024,.00039269,97.4197,246.9630,92.2358,267.9326,0,U,66778,999,3125,.16914383E-3,.3446E-4,0
FOSSASAT-2E22,2025-276DU,2026-06-21T17:47:29.049216,15.18486524,.00068907,97.4176,245.8600,117.7798,242.4135,0,U,66779,999,3109,.10594018E-3,.2118E-4,0
FOSSASAT-2E24,2025-276DV,2026-06-22T11:33:09.340704,15.18919836,.00061861,97.4172,246.6927,108.5884,251.6023,0,U,66780,999,3121,.14307927E-3,.292E-4,0
LEMUR-2-CELIJO-SB-PK,2025-276DW,2026-06-22T10:33:30.686400,15.00031934,.00084565,97.5238,244.0454,120.0467,240.1597,0,U,66781,999,2341,.40505661E-3,.4988E-4,0
LEMUR-2-FINNIAN,2025-276DX,2026-06-22T11:34:22.581984,15.00433549,.0008853,97.5300,244.3061,74.1570,286.0630,0,U,66782,999,2079,.41390992E-3,.5153E-4,0
LEMUR-2-STARLIGHT,2025-276DY,2026-06-22T17:02:47.981184,14.99088899,.00148999,97.5247,244.1609,112.3197,247.9607,0,U,66783,999,3102,.36571761E-3,.4395E-4,0
LEMUR-2-TARTIFLETTE,2025-276DZ,2026-06-22T17:00:28.554912,14.99108960,.00138602,97.5252,244.1667,118.9343,241.3272,0,U,66784,999,3102,.29041641E-3,.3478E-4,0
LEMUR-2-VUKASIN,2025-276EA,2026-06-22T10:20:18.839904,15.00410414,.00058544,97.5292,244.2071,112.0523,248.1324,0,U,66785,999,3093,.30946129E-3,.3834E-4,0
LEMUR-2-HOTSPUR-TOM,2025-276EB,2026-06-22T16:50:19.685472,14.99007706,.0015144,97.5251,244.1399,111.5071,248.7768,0,U,66786,999,3095,.32154848E-3,.3849E-4,0
LEMUR-2-MYRA,2025-276EC,2026-06-22T11:06:12.805344,15.00310527,.00172343,97.5213,244.1708,124.2487,236.0373,0,U,66787,999,3100,.46801451E-3,.5829E-4,0
FOSSASA-2E23,2025-276ED,2026-06-21T22:50:57.182208,15.21684012,.00071477,97.4238,246.6063,107.5370,252.6647,0,U,66788,999,3115,.31884803E-3,.715E-4,0
STARLINK-35867,2025-278A,2026-06-22T05:42:49.788000,15.27585024,.00013139,43.0007,244.3531,242.8477,117.2241,0,U,66791,999,3119,.45727959E-3,.12344E-3,0
STARLINK-35990,2025-278B,2026-06-22T15:31:36.463584,15.27596211,.00012041,43.0005,241.3967,258.3805,101.6912,0,U,66792,999,3126,.4529293E-3,.12228E-3,0
STARLINK-36051,2025-278C,2026-06-22T11:27:59.984640,15.27578322,.00009637,43.0008,242.7045,265.0740,95.0002,0,U,66793,999,3123,.25235206E-3,.6688E-4,0
STARLINK-36062,2025-278D,2026-06-22T11:37:15.032928,15.27588971,.00013145,42.9981,242.7555,270.2098,89.8603,0,U,66794,999,3123,.59033714E-3,.16023E-3,0
STARLINK-36047,2025-278E,2026-06-22T13:00:18.200448,15.27585250,.00015465,42.9987,242.3270,272.8329,87.2346,0,U,66795,999,3124,.49382773E-3,.13354E-3,0
STARLINK-35964,2025-278F,2026-06-22T14:38:48.490080,15.27586464,.00016707,42.9999,226.9350,243.0199,117.0482,0,U,66796,999,3142,.42864286E-3,.11554E-3,0
STARLINK-36099,2025-278G,2026-06-22T11:15:02.823552,15.27588589,.00016122,42.9989,242.6381,271.3610,88.7057,0,U,66797,999,3123,.36628516E-3,.9833E-4,0
STARLINK-36041,2025-278H,2026-06-22T05:24:19.630080,15.27582229,.00013959,42.9986,244.2485,275.4970,84.5722,0,U,66798,999,3119,.33701688E-3,.9024E-4,0
STARLINK-36044,2025-278J,2026-06-22T04:28:50.610432,15.27595306,.00012494,43.0016,243.9570,258.7437,101.3274,0,U,66799,999,3119,.10574103E-2,.28963E-3,0
STARLINK-35996,2025-278K,2026-06-22T04:21:24.668064,15.27592584,.00014765,42.9985,243.9180,275.9253,84.1431,0,U,66800,999,3119,.49368263E-3,.13353E-3,0
STARLINK-36080,2025-278L,2026-06-22T11:57:36.758304,15.27600052,.00012189,43.0000,242.8607,266.4923,93.5790,0,U,66801,999,3123,.48401107E-3,.13089E-3,0
STARLINK-35604,2025-278M,2026-06-22T13:07:42.086496,15.27579938,.00014827,42.9977,242.3594,273.3724,86.6958,0,U,66802,999,3124,.2693677E-3,.7158E-4,0
STARLINK-35565,2025-278N,2026-06-21T21:35:23.619552,15.27586637,.00017354,42.9989,246.1086,274.9833,85.0821,0,U,66803,999,3114,.42214125E-3,.11375E-3,0
STARLINK-36038,2025-278P,2026-06-22T04:38:03.829632,15.27585294,.00015354,43.0018,244.0135,260.1359,99.9319,0,U,66804,999,3119,.36518161E-3,.9802E-4,0
STARLINK-36049,2025-278Q,2026-06-22T11:46:30.141696,15.27589593,.00014719,42.9984,242.8028,274.3937,85.6746,0,U,66805,999,3123,.42592845E-3,.1148E-3,0
STARLINK-36069,2025-278R,2026-06-22T11:52:03.154080,15.27586994,.0002528,42.9949,242.8335,270.1861,89.8701,0,U,66806,999,3123,.39751089E-3,.10695E-3,0
STARLINK-36000,2025-278S,2026-06-22T11:00:14.559840,15.27590936,.00027564,43.0034,242.5656,289.6576,70.3978,0,U,66807,999,3123,.61889376E-3,.16814E-3,0
STARLINK-36071,2025-278T,2026-06-22T15:11:15.208224,15.27592203,.00011865,43.0009,241.2838,270.3494,89.7222,0,U,66808,999,3126,.3977876E-3,.10704E-3,0
STARLINK-35979,2025-278U,2026-06-22T11:53:54.127968,15.27586893,.00014414,43.0014,242.8378,272.7800,87.2887,0,U,66809,999,3123,.45051768E-3,.12158E-3,0
STARLINK-36046,2025-278V,2026-06-22T11:31:41.820096,15.27591591,.00003618,42.9993,242.7224,238.2556,121.8260,0,U,66810,999,3123,.43795465E-3,.11813E-3,0
STARLINK-36045,2025-278W,2026-06-22T11:20:35.704608,15.27589291,.00011591,42.9972,242.6615,275.7089,84.3630,0,U,66811,999,3123,.47851141E-3,.12932E-3,0
STARLINK-36054,2025-278X,2026-06-22T15:59:21.765696,15.27594431,.00016954,42.9972,241.5350,265.3345,94.7313,0,U,66812,999,3126,.64141148E-3,.17438E-3,0
STARLINK-36042,2025-278Y,2026-06-22T04:23:15.813888,15.27594454,.00006688,42.9992,243.9250,255.2473,104.8305,0,U,66813,999,3119,.67285463E-3,.18308E-3,0
STARLINK-35984,2025-278Z,2026-06-22T04:26:57.766848,15.27594962,.00011561,43.0001,243.9442,267.1083,92.9636,0,U,66814,999,3119,.55629745E-3,.15084E-3,0
STARLINK-35985,2025-278AA,2026-06-22T11:11:20.613120,15.27588772,.00018788,43.0007,242.6115,283.0605,77.0037,0,U,66815,999,3244,.54093241E-3,.14657E-3,0
STARLINK-36098,2025-278AB,2026-06-22T05:48:09.988128,15.27599807,.00014508,42.9975,243.5010,177.0462,183.0398,0,U,66816,999,3120,.52248679E-3,.14152E-3,0
STARLINK-35995,2025-278AC,2026-06-22T11:05:47.435712,15.27590319,.00010259,42.9992,242.5854,260.0186,100.0550,0,U,66817,999,3123,.38989634E-3,.10486E-3,0
STARLINK-35994,2025-278AD,2026-06-22T06:27:01.248480,15.27563983,.00026096,43.0005,243.7184,290.7761,69.2811,0,U,66818,999,3120,.84102722E-3,.22943E-3,0
STARLINK-35989,2025-278AE,2026-06-22T12:56:36.135168,15.27586328,.00014784,42.9996,242.2986,268.5770,91.4912,0,U,66819,999,3124,.34891098E-3,.9353E-4,0
KOMPSAT-7,2025-279A,2026-06-22T08:22:44.020704,15.00376450,.00093352,97.7085,121.8547,356.3364,3.7789,0,U,66820,999,3039,.151503E-3,.1844E-4,0
STARLINK-35966,2025-280A,2026-06-22T17:16:06.904704,14.98334477,.00027311,70.0014,69.8340,269.5676,90.5170,0,U,66821,999,3180,.26800532E-3,.3107E-4,0
STARLINK-35958,2025-280B,2026-06-22T10:03:29.586816,14.98329207,.0002855,70.0014,70.3879,263.8370,96.2464,0,U,66822,999,3176,.34465753E-3,.4022E-4,0
STARLINK-35957,2025-280C,2026-06-22T01:38:46.451616,14.98335507,.00028922,70.0014,71.1698,268.3943,91.6885,0,U,66823,999,3171,.18982876E-3,.2173E-4,0
